OSCAR 7 (AO-7)          
1 07530U 74089B   17227.54165696 -.00000024  00000-0  12820-3 0  9997
2 07530 101.6359 195.0697 0011722 205.6916 265.8781 12.53628251956069
UOSAT 2 (UO-11)         
1 14781U 84021B   17227.61436586  .00000046  00000-0  11906-4 0  9995
2 14781  97.6923 271.1236 0008760  15.4635 344.6845 14.82917109778150
LUSAT (LO-19)           
1 20442U 90005G   17227.42997279 -.00000012  00000-0  11537-4 0  9999
2 20442  98.5771 163.3487 0011371 338.6861  21.3848 14.32866470440107
EYESAT-1 (AO-27)        
1 22825U 93061C   17227.87683730  .00000003  00000-0  19030-4 0  9999
2 22825  98.8177 194.2099 0008848 150.5192 209.6490 14.30002768245930
ITAMSAT (IO-26)         
1 22826U 93061D   17227.89418091 -.00000001  00000-0  17303-4 0  9998
2 22826  98.8119 194.3024 0009536 141.6606 218.5255 14.30331995246118
RADIO ROSTO (RS-15)     
1 23439U 94085A   17227.36169279 -.00000052  00000-0 -27493-3 0  9996
2 23439  64.8160 123.4601 0166033 235.6185 250.5045 11.27566409932088
JAS-2 (FO-29)           
1 24278U 96046B   17227.61580629 -.00000011  00000-0  24292-4 0  9990
2 24278  98.5545 102.9460 0350324 183.2532 176.6327 13.53077307 36663
TECHSAT 1B (GO-32)      
1 25397U 98043D   17227.44351571 -.00000016  00000-0  12085-4 0  9997
2 25397  98.6125 168.5406 0001549 140.7659 219.3632 14.23626337992003
ISS (ZARYA)             
1 25544U 98067A   17227.85056329  .00001318  00000-0  27157-4 0  9996
2 25544  51.6422 100.8943 0005587 142.2085 301.9401 15.54154828 71036
PCSAT (NO-44)           
1 26931U 01043C   17227.60800774 -.00000025  00000-0  22328-4 0  9999
2 26931  67.0516 297.8828 0007113 258.1484 101.8820 14.30469324828774
SAUDISAT 1C (SO-50)     
1 27607U 02058C   17227.58576816 -.00000023  00000-0  17004-4 0  9994
2 27607  64.5563 304.0497 0030816  66.0436 294.3888 14.75347266787743
CUTE-1 (CO-55)          
1 27844U 03031E   17227.88197366  .00000048  00000-0  41283-4 0  9993
2 27844  98.6899 236.0203 0009910 167.8609 192.2809 14.22052271732805
CUBESAT XI-IV (CO-57)   
1 27848U 03031J   17227.54604289  .00000029  00000-0  33169-4 0  9990
2 27848  98.6991 235.9731 0009603 178.2850 181.8362 14.21665215732635
MOZHAYETS 4 (RS-22)     
1 27939U 03042A   17227.81537547  .00000084  00000-0  23480-4 0  9991
2 27939  97.9475  10.6610 0013849  42.0798  67.4620 14.66585982742059
CUBESAT XI-V (CO-58)    
1 28895U 05043F   17227.38583149  .00000128  00000-0  33421-4 0  9992
2 28895  97.8714  26.9700 0015868 320.2136  39.7903 14.63419806628918
CUTE-1.7+APD II (CO-65) 
1 32785U 08021C   17227.49006752  .00000179  00000-0  25188-4 0  9993
2 32785  97.5643 249.0476 0012446 338.6531  21.4165 14.87922012503642
DELFI-C3 (DO-64)        
1 32789U 08021G   17227.73187239  .00000613  00000-0  47401-4 0  9999
2 32789  97.5543 284.6994 0011156 256.9503 103.0478 15.05027826505829
SEEDS II (CO-66)        
1 32791U 08021J   17227.53260231  .00000265  00000-0  32720-4 0  9995
2 32791  97.5606 253.6352 0012332 321.4868  38.5469 14.90269721503987
YUBILEINY (RS-30)       
1 32953U 08025A   17227.68106701  .00000032  00000-0  16148-3 0  9993
2 32953  82.5022 202.6566 0019383 151.6094 208.6046 12.43078502418810
PRISM (HITOMI)          
1 33493U 09002B   17227.90432304  .00000861  00000-0  82880-4 0  9992
2 33493  98.1604 112.8349 0013972 244.4531 115.5251 14.95745216464700
KKS-1 (KISEKI)          
1 33499U 09002H   17227.56224518  .00000123  00000-0  26330-4 0  9995
2 33499  98.3380  34.7023 0009203 177.4281 182.6975 14.75210204460110
SWISSCUBE               
1 35932U 09051B   17227.37301178  .00000130  00000-0  40436-4 0  9991
2 35932  98.5038   6.9624 0008821  73.2834 286.9330 14.56035158418899
BEESAT                  
1 35933U 09051C   17227.35453168  .00000107  00000-0  35092-4 0  9993
2 35933  98.5076   8.2927 0007097  85.1639 275.0368 14.56152365419039
ITUPSAT 1               
1 35935U 09051E   17227.37542131  .00000100  00000-0  34059-4 0  9991
2 35935  98.5187   8.5680 0009385  79.0550 281.1702 14.55344074418813
XIWANG-1 (HOPE-1)       
1 36122U 09072B   17227.85216674 -.00000029  00000-0  35869-4 0  9997
2 36122 100.0976 251.5219 0008238  97.1279 263.0772 13.16340661368487
TISAT 1                 
1 36799U 10035E   17227.55962051  .00000472  00000-0  54384-4 0  9996
2 36799  98.0685 351.5126 0013586 128.7378 231.5056 14.90445674384421
JUGNU                   
1 37839U 11058B   17227.83977069  .00000298  00000-0  17269-4 0  9991
2 37839  19.9617  88.7758 0019003 121.0001 331.4472 14.12589235302140
SRMSAT                  
1 37841U 11058D   17227.83872983  .00000290  00000-0  14223-4 0  9992
2 37841  19.9717 131.6931 0011806  17.0934  36.5460 14.10580206301716
M-CUBED & EXP-1 PRIME   
1 37855U 11061F   17227.36996587  .00000434  00000-0  31251-4 0  9996
2 37855 101.7077 128.8586 0179915 266.6931  91.3684 15.03223103315219
HORYU 2                 
1 38340U 12025D   17227.56625238  .00000183  00000-0  35146-4 0  9999
2 38340  98.3773 233.5827 0013019 101.9701 258.2967 14.75368860271636
STRAND-1                
1 39090U 13009E   17227.56960456  .00000005  00000-0  17178-4 0  9997
2 39090  98.5497  72.4361 0010189 120.1939 240.0257 14.34977504233970
SOMP                    
1 39134U 13015E   17227.84412571  .00001109  00000-0  63331-4 0  9992
2 39134  64.8637  33.8738 0038743 254.0712 105.6144 15.17945825238533
BEESAT-2                
1 39136U 13015G   17227.58041498  .00000735  00000-0  48891-4 0  9999
2 39136  64.8698  46.2508 0033800 273.7702  85.9559 15.15208514237883
CUBEBUG-1 (CAPITAN BETO)
1 39153U 13018D   17227.78280741  .00000160  00000-0  27989-4 0  9996
2 39153  97.9862 319.7645 0016342 211.3914 148.6324 14.80205734232409
ZACUBE-1 (TSHEPISOSAT)  
1 39417U 13066B   17227.76238893  .00000189  00000-0  30371-4 0  9991
2 39417  97.6249 267.1015 0060830  75.5915 285.2039 14.80739861201597
TRITON-1                
1 39427U 13066M   17227.58010118  .00000139  00000-0  30151-4 0  9991
2 39427  97.6375 238.9577 0114912 157.7967 202.8273 14.67485631199564
GOMX 1                  
1 39430U 13066Q   17227.70518877  .00000159  00000-0  38038-4 0  9998
2 39430  97.6677 222.2142 0150924 214.6322 144.4980 14.58896529198600
HUMSAT-D                
1 39433U 13066T   17227.22658923  .00000289  00000-0  34155-4 0  9995
2 39433  97.6479 288.5895 0031656  23.7418 336.5254 14.91489801202813
EAGLE 2                 
1 39436U 13066W   17227.78355589  .00016477  00000-0  42447-3 0  9999
2 39436  97.7105 336.7377 0010085 222.2024 137.8446 15.39246948205810
CUBEBUG-2 (LO-74)       
1 39440U 13066AA  17227.58460764  .00000186  00000-0  32925-4 0  9995
2 39440  97.6256 255.6463 0082282 107.4324 253.5903 14.75479686199655
FUNCUBE-1 (AO-73)       
1 39444U 13066AE  17227.57738081  .00000242  00000-0  36372-4 0  9991
2 39444  97.6264 268.0556 0059965  72.8458 287.9310 14.81479613199812
UWE-3                   
1 39446U 13066AG  17227.58906128  .00000190  00000-0  31931-4 0  9991
2 39446  97.6240 260.9914 0072032  92.0306 268.9157 14.78013071199381
SPROUT                  
1 39770U 14029E   17227.87982314  .00000617  00000-0  76237-4 0  9996
2 39770  97.8750 326.6739 0010526 127.5139 232.7011 14.86313174175009
UNISAT-6                
1 40012U 14033C   17227.88802194  .00000158  00000-0  31157-4 0  9992
2 40012  97.8486 109.7219 0060052 101.7231 259.0724 14.73644725169736
DUCHIFAT-1              
1 40021U 14033M   17227.33153600  .00000306  00000-0  37632-4 0  9992
2 40021  97.9149 140.5755 0014517 104.2715 256.0116 14.89938257171403
FUNCUBE-3 (EO-79)       
1 40025U 14033R   17227.70789498  .00000255  00000-0  33540-4 0  9994
2 40025  97.9084 138.6982 0013952 107.3347 252.9397 14.88454354171341
CHUBUSAT-1              
1 40300U 14070C   17227.77518293  .00000519  00000-0  26486-4 0  9995
2 40300  97.3933 306.5764 0018965 251.6271 261.3951 15.20943323153847
NUDT-PHONESAT           
1 40900U 15049B   17227.90048584  .00001976  00000-0  95727-4 0  9996
2 40900  97.4435 234.9836 0014670  24.4414 335.7514 15.19631979105521
ZDPS 2A                 
1 40901U 15049C   17227.82675515  .00000863  00000-0  47883-4 0  9992
2 40901  97.4586 234.1160 0014676  25.7668 334.4293 15.16329689105374
ZDPS 2B                 
1 40902U 15049D   17227.89451164  .00000807  00000-0  45174-4 0  9991
2 40902  97.4459 232.7456 0014628  22.7635 337.4244 15.16167152105378
XW-2A                   
1 40903U 15049E   17227.81518758  .00001845  00000-0  49867-4 0  9993
2 40903  97.4185 254.2501 0016260  55.4915 304.7863 15.38963356106811
KAITUO 1A               
1 40904U 15049F   17227.77007913  .00000242  00000-0  16627-4 0  9993
2 40904  97.4549 232.2419 0015810  22.3499  83.0984 15.14574262105267
2015-049G               
1 40905U 15049G   17227.83220818  .00000419  00000-0  26875-4 0  9994
2 40905  97.4522 230.9221 0016279  13.4024 346.7636 15.13594362105221
XW-2C                   
1 40906U 15049H   17227.83344025  .00000645  00000-0  38413-4 0  9994
2 40906  97.4559 232.1360 0015613  14.6695 345.4987 15.14616596105262
XW-2D                   
1 40907U 15049J   17227.81267171  .00000692  00000-0  40820-4 0  9996
2 40907  97.4528 231.8637 0014931  13.1664 346.9955 15.14725552105268
LILACSAT 2              
1 40908U 15049K   17227.80409956  .00000355  00000-0  23608-4 0  9996
2 40908  97.4631 231.5741 0016427  11.0851 349.0739 15.13167428105180
XW-2F                   
1 40910U 15049M   17227.84565883  .00001039  00000-0  58001-4 0  9990
2 40910  97.4547 232.6755 0015650  10.3034 349.8517 15.15645007105186
XW-2B                   
1 40911U 15049N   17227.82027912  .00000675  00000-0  39922-4 0  9991
2 40911  97.4571 232.2772 0014841  13.5672 346.5956 15.14685990105166
KAITUO 1B               
1 40912U 15049P   17227.74887604  .00001127  00000-0  59018-4 0  9996
2 40912  97.4513 234.5902 0015692   2.4510  51.7893 15.17759131105321
